{"type": "FeatureCollection", "features": [ {"type": "Feature", "properties": {"norad_id": 66879, "name": "STARLINK-35749", "group": "last-30-days", "lat": 4.255192171436296, "lon": 24.098799561221384, "alt_km": 358.94763076904565, "timestamp": "2025-12-23T07:45:08.117450+00:00", "meta": {"OBJECT_NAME": "STARLINK-35749", "OBJECT_ID": "2025-283B", "EPOCH": "2025-12-22T22:00:03.000096", "MEAN_MOTION": 15.71780095, "ECCENTRICITY": 0.00010463, "INCLINATION": 53.1588, "RA_OF_ASC_NODE": 22.908, "ARG_OF_PERICENTER": 94.1889, "MEAN_ANOMALY": 132.106, "EPHEMERIS_TYPE": 0, "CLASSIFICATION_TYPE": "U", "NORAD_CAT_ID": 66879, "ELEMENT_SET_NO": 999, "REV_AT_EPOCH": 406, "BSTAR": -0.016417153, "MEAN_MOTION_DOT": -0.01924367, "MEAN_MOTION_DDOT": 0}, "tle": {"line1": "1 66879U 25283B   25356.91670139 -.01924367  00000+0 -16417-1 0  9996", "line2": "2 66879  53.1588  22.9080 0001046  94.1889 132.1060 15.71780095  4065"}}, "geometry": {"type": "Point", "coordinates": [24.098799561221384, 4.255192171436296]}}, {"type": "Feature", "properties": {"norad_id": 66880, "name": "STARLINK-35844", "group": "last-30-days", "lat": 2.719441077968058, "lon": 22.94617599466347, "alt_km": 359.18236993714527, "timestamp": "2025-12-23T07:45:08.117460+00:00", "meta": {"OBJECT_NAME": "STARLINK-35844", "OBJECT_ID": "2025-283C", "EPOCH": "2025-12-22T22:00:03.000096", "MEAN_MOTION": 15.71776537, "ECCENTRICITY": 0.00013449, "INCLINATION": 53.1589, "RA_OF_ASC_NODE": 22.9124, "ARG_OF_PERICENTER": 94.244, "MEAN_ANOMALY": 130.1354, "EPHEMERIS_TYPE": 0, "CLASSIFICATION_TYPE": "U", "NORAD_CAT_ID": 66880, "ELEMENT_SET_NO": 999, "REV_AT_EPOCH": 406, "BSTAR": -0.01637475, "MEAN_MOTION_DOT": -0.01881816, "MEAN_MOTION_DDOT": 0}, "tle": {"line1": "1 66880U 25283C   25356.91670139 -.01881816  00000+0 -16375-1 0  9992", "line2": "2 66880  53.1589  22.9124 0001344  94.2440 130.1354 15.71776537  4062"}}, "geometry": {"type": "Point", "coordinates": [22.94617599466347, 2.719441077968058]}}, {"type": "Feature", "properties": {"norad_id": 66881, "name": "STARLINK-35860", "group": "last-30-days", "lat": 5.7851108020547555, "lon": 25.253336589941515, "alt_km": 358.6393104250228, "timestamp": "2025-12-23T07:45:08.117473+00:00", "meta": {"OBJECT_NAME": "STARLINK-35860", "OBJECT_ID": "2025-283D", "EPOCH": "2025-12-22T22:00:03.000096", "MEAN_MOTION": 15.71776711, "ECCENTRICITY": 0.00010792, "INCLINATION": 53.1588, "RA_OF_ASC_NODE": 22.904, "ARG_OF_PERICENTER": 87.7793, "MEAN_ANOMALY": 140.4331, "EPHEMERIS_TYPE": 0, "CLASSIFICATION_TYPE": "U", "NORAD_CAT_ID": 66881, "ELEMENT_SET_NO": 999, "REV_AT_EPOCH": 406, "BSTAR": -0.016372102, "MEAN_MOTION_DOT": -0.01881341, "MEAN_MOTION_DDOT": 0}, "tle": {"line1": "1 66881U 25283D   25356.91670139 -.01881341  00000+0 -16372-1 0  9993", "line2": "2 66881  53.1588  22.9040 0001079  87.7793 140.4331 15.71776711  4065"}}, "geometry": {"type": "Point", "coordinates": [25.253336589941515, 5.7851108020547555]}}, {"type": "Feature", "properties": {"norad_id": 66882, "name": "STARLINK-35912", "group": "last-30-days", "lat": 7.31089556293828, "lon": 26.413510769511834, "alt_km": 358.3784793680052, "timestamp": "2025-12-23T07:45:08.117484+00:00", "meta": {"OBJECT_NAME": "STARLINK-35912", "OBJECT_ID": "2025-283E", "EPOCH": "2025-12-22T22:00:03.000096", "MEAN_MOTION": 15.7177766, "ECCENTRICITY": 0.00013449, "INCLINATION": 53.1587, "RA_OF_ASC_NODE": 22.9007, "ARG_OF_PERICENTER": 89.1136, "MEAN_ANOMALY": 141.0149, "EPHEMERIS_TYPE": 0, "CLASSIFICATION_TYPE": "U", "NORAD_CAT_ID": 66882, "ELEMENT_SET_NO": 999, "REV_AT_EPOCH": 406, "BSTAR": -0.016385355, "MEAN_MOTION_DOT": -0.0188295, "MEAN_MOTION_DDOT": 0}, "tle": {"line1": "1 66882U 25283E   25356.91670139 -.01882950  00000+0 -16385-1 0  9995", "line2": "2 66882  53.1587  22.9007 0001344  89.1136 141.0149 15.71777660  4068"}}, "geometry": {"type": "Point", "coordinates": [26.413510769511834, 7.31089556293828]}}, {"type": "Feature", "properties": {"norad_id": 66883, "name": "STARLINK-35947", "group": "last-30-days", "lat": 8.838436987237461, "lon": 27.584992326402638, "alt_km": 358.1656655215447, "timestamp": "2025-12-23T07:45:08.117495+00:00", "meta": {"OBJECT_NAME": "STARLINK-35947", "OBJECT_ID": "2025-283F", "EPOCH": "2025-12-22T22:00:03.000096", "MEAN_MOTION": 15.71774198, "ECCENTRICITY": 0.00012157, "INCLINATION": 53.1589, "RA_OF_ASC_NODE": 22.8971, "ARG_OF_PERICENTER": 90.5052, "MEAN_ANOMALY": 141.5447, "EPHEMERIS_TYPE": 0, "CLASSIFICATION_TYPE": "U", "NORAD_CAT_ID": 66883, "ELEMENT_SET_NO": 999, "REV_AT_EPOCH": 411, "BSTAR": -0.016368601, "MEAN_MOTION_DOT": -0.01880932, "MEAN_MOTION_DDOT": 0}, "tle": {"line1": "1 66883U 25283F   25356.91670139 -.01880932  00000+0 -16369-1 0  9996", "line2": "2 66883  53.1589  22.8971 0001215  90.5052 141.5447 15.71774198  4115"}}, "geometry": {"type": "Point", "coordinates": [27.584992326402638, 8.838436987237461]}}, {"type": "Feature", "properties": {"norad_id": 66884, "name": "STARLINK-36057", "group": "last-30-days", "lat": 11.876866276354477, "lon": 29.953728780782743, "alt_km": 357.73124002624354, "timestamp": "2025-12-23T07:45:08.117505+00:00", "meta": {"OBJECT_NAME": "STARLINK-36057", "OBJECT_ID": "2025-283G", "EPOCH": "2025-12-22T22:00:03.000096", "MEAN_MOTION": 15.71771663, "ECCENTRICITY": 0.00013014, "INCLINATION": 53.1589, "RA_OF_ASC_NODE": 22.8884, "ARG_OF_PERICENTER": 98.4137, "MEAN_ANOMALY": 137.4676, "EPHEMERIS_TYPE": 0, "CLASSIFICATION_TYPE": "U", "NORAD_CAT_ID": 66884, "ELEMENT_SET_NO": 999, "REV_AT_EPOCH": 406, "BSTAR": -0.016299349, "MEAN_MOTION_DOT": -0.01873937, "MEAN_MOTION_DDOT": 0}, "tle": {"line1": "1 66884U 25283G   25356.91670139 -.01873937  00000+0 -16299-1 0  9996", "line2": "2 66884  53.1589  22.8884 0001301  98.4137 137.4676 15.71771663  4062"}}, "geometry": {"type": "Point", "coordinates": [29.953728780782743, 11.876866276354477]}}, {"type": "Feature", "properties": {"norad_id": 66885, "name": "STARLINK-35954", "group": "last-30-days", "lat": 10.360136650649281, "lon": 28.76368486548802, "alt_km": 357.92512563125456, "timestamp": "2025-12-23T07:45:08.117515+00:00", "meta": {"OBJECT_NAME": "STARLINK-35954", "OBJECT_ID": "2025-283H", "EPOCH": "2025-12-22T22:00:03.000096", "MEAN_MOTION": 15.71776394, "ECCENTRICITY": 0.00012525, "INCLINATION": 53.1589, "RA_OF_ASC_NODE": 22.8926, "ARG_OF_PERICENTER": 91.852, "MEAN_ANOMALY": 142.1135, "EPHEMERIS_TYPE": 0, "CLASSIFICATION_TYPE": "U", "NORAD_CAT_ID": 66885, "ELEMENT_SET_NO": 999, "REV_AT_EPOCH": 406, "BSTAR": -0.016394177, "MEAN_MOTION_DOT": -0.01883659, "MEAN_MOTION_DDOT": 0}, "tle": {"line1": "1 66885U 25283H   25356.91670139 -.01883659  00000+0 -16394-1 0  9995", "line2": "2 66885  53.1589  22.8926 0001252  91.8520 142.1135 15.71776394  4067"}}, "geometry": {"type": "Point", "coordinates": [28.76368486548802, 10.360136650649281]}}, {"type": "Feature", "properties": {"norad_id": 66886, "name": "STARLINK-35900", "group": "last-30-days", "lat": 13.403320030251411, "lon": 31.16874249720596, "alt_km": 357.9330499873313, "timestamp": "2025-12-23T07:45:08.117525+00:00", "meta": {"OBJECT_NAME": "STARLINK-35900", "OBJECT_ID": "2025-283J", "EPOCH": "2025-12-22T22:00:03.000096", "MEAN_MOTION": 15.71845118, "ECCENTRICITY": 0.00013078, "INCLINATION": 53.1589, "RA_OF_ASC_NODE": 22.8839, "ARG_OF_PERICENTER": 120.6758, "MEAN_ANOMALY": 117.1362, "EPHEMERIS_TYPE": 0, "CLASSIFICATION_TYPE": "U", "NORAD_CAT_ID": 66886, "ELEMENT_SET_NO": 999, "REV_AT_EPOCH": 406, "BSTAR": -0.017640192, "MEAN_MOTION_DOT": -0.02055529, "MEAN_MOTION_DDOT": 0}, "tle": {"line1": "1 66886U 25283J   25356.91670139 -.02055529  00000+0 -17640-1 0  9999", "line2": "2 66886  53.1589  22.8839 0001307 120.6758 117.1362 15.71845118  4061"}}, "geometry": {"type": "Point", "coordinates": [31.16874249720596, 13.403320030251411]}}, {"type": "Feature", "properties": {"norad_id": 66887, "name": "STARLINK-35925", "group": "last-30-days", "lat": 14.89860241684028, "lon": 32.37931565343388, "alt_km": 357.11086203273226, "timestamp": "2025-12-23T07:45:08.117534+00:00", "meta": {"OBJECT_NAME": "STARLINK-35925", "OBJECT_ID": "2025-283K", "EPOCH": "2025-12-22T22:00:03.000096", "MEAN_MOTION": 15.71777396, "ECCENTRICITY": 0.00011506, "INCLINATION": 53.1589, "RA_OF_ASC_NODE": 22.8801, "ARG_OF_PERICENTER": 86.6689, "MEAN_ANOMALY": 153.0452, "EPHEMERIS_TYPE": 0, "CLASSIFICATION_TYPE": "U", "NORAD_CAT_ID": 66887, "ELEMENT_SET_NO": 999, "REV_AT_EPOCH": 406, "BSTAR": -0.016392507, "MEAN_MOTION_DOT": -0.01883477, "MEAN_MOTION_DDOT": 0}, "tle": {"line1": "1 66887U 25283K   25356.91670139 -.01883477  00000+0 -16393-1 0  9994", "line2": "2 66887  53.1589  22.8801 0001150  86.6689 153.0452 15.71777396  4062"}}, "geometry": {"type": "Point", "coordinates": [32.37931565343388, 14.89860241684028]}}, {"type": "Feature", "properties": {"norad_id": 66888, "name": "STARLINK-35919", "group": "last-30-days", "lat": 16.397506921393433, "lon": 33.614780950123595, "alt_km": 356.8372728699651, "timestamp": "2025-12-23T07:45:08.117544+00:00", "meta": {"OBJECT_NAME": "STARLINK-35919", "OBJECT_ID": "2025-283L", "EPOCH": "2025-12-22T22:00:03.000096", "MEAN_MOTION": 15.71775408, "ECCENTRICITY": 0.00012698, "INCLINATION": 53.1589, "RA_OF_ASC_NODE": 22.8758, "ARG_OF_PERICENTER": 88.9119, "MEAN_ANOMALY": 152.7176, "EPHEMERIS_TYPE": 0, "CLASSIFICATION_TYPE": "U", "NORAD_CAT_ID": 66888, "ELEMENT_SET_NO": 999, "REV_AT_EPOCH": 406, "BSTAR": -0.016346058, "MEAN_MOTION_DOT": -0.0187882, "MEAN_MOTION_DDOT": 0}, "tle": {"line1": "1 66888U 25283L   25356.91670139 -.01878820  00000+0 -16346-1 0  9999", "line2": "2 66888  53.1589  22.8758 0001269  88.9119 152.7176 15.71775408  4069"}}, "geometry": {"type": "Point", "coordinates": [33.614780950123595, 16.397506921393433]}}]}